NOAA 1 [-]              
1 04793U 70106A   23250.66507497 -.00000045  00000+0 -81930-5 0  9999
2 04793 101.4953 307.0298 0031792 170.1656 358.4810 12.54018415413643
NOAA 2 (ITOS-D) [-]     
1 06235U 72082A   23250.78725652 -.00000022  00000+0  15422-3 0  9990
2 06235 101.9986 241.6892 0003809 306.0304 227.3771 12.53166975328007
NOAA 3 [-]              
1 06920U 73086A   23250.77901640 -.00000027  00000+0  14567-3 0  9992
2 06920 102.2550 239.5466 0006311 184.4284 225.0007 12.40357572256433
NOAA 4 [-]              
1 07529U 74089A   23250.73715435 -.00000029  00000+0  10964-3 0  9992
2 07529 101.9639 237.6581 0008915 331.9615  79.4718 12.53171303232578
NOAA 5 [-]              
1 09057U 76077A   23250.37362366 -.00000005  00000+0  31065-3 0  9999
2 09057 102.1621 219.7843 0010202  37.2466 132.2828 12.37788185129034
TIROS N [-]             
1 11060U 78096A   23251.04690085  .00000173  00000+0  10372-3 0  9999
2 11060  98.5761 296.4434 0009490 296.0001  64.0198 14.18623055535307
NOAA 6 [-]              
1 11416U 79057A   23251.03196218  .00000423  00000+0  16691-3 0  9998
2 11416  98.6509 267.3711 0010687  23.7141 336.4534 14.34146702305872
NOAA 7 [-]              
1 12553U 81059A   23251.13791741  .00000056  00000+0  49986-4 0  9995
2 12553  98.9389 304.5848 0010475 282.6363  77.3640 14.17434745181437
NOAA 8 [-]              
1 13923U 83022A   23250.52553735  .00000207  00000+0  99176-4 0  9994
2 13923  98.7184 245.2160 0014788 346.9587  13.1210 14.29034046106252
NOAA 9 [-]              
1 15427U 84123A   23250.44946987  .00000207  00000+0  12765-3 0  9992
2 15427  99.0973 236.2658 0014569 343.5283 179.4330 14.16406910999885
NOAA 10 [-]             
1 16969U 86073A   23251.22471852  .00000197  00000+0  96020-4 0  9996
2 16969  98.6120 235.3131 0013375  81.2155 289.8800 14.28411676925010
NOAA 11 [-]             
1 19531U 88089A   23250.69001892  .00000094  00000+0  69143-4 0  9998
2 19531  98.4749 221.4383 0010684 336.3585  23.7098 14.15424122804082
NOAA 12 [-]             
1 21263U 91032A   23251.13229274  .00000149  00000+0  80137-4 0  9998
2 21263  98.5384 243.9967 0014814 107.9914 252.2883 14.26156076680790
NOAA 13 [-]             
1 22739U 93050A   23251.13847686  .00000199  00000+0  12865-3 0  9999
2 22739  98.5620 215.0892 0010187 136.9111 223.2861 14.13036510550515
NOAA 14 [-]             
1 23455U 94089A   23251.04384428  .00000082  00000+0  64030-4 0  9991
2 23455  98.4280 257.9093 0010571 114.3607 245.8671 14.14297059480213
NOAA 15 [B]             
1 25338U 98030A   23251.07227108  .00000223  00000+0  11052-3 0  9999
2 25338  98.6019 278.6963 0011457  74.2836 285.9607 14.26384511317075
NOAA 16 [-]             
1 26536U 00055A   23251.08422603  .00000085  00000+0  67307-4 0  9999
2 26536  98.5760 298.0298 0009816 332.0357  28.0288 14.13461207184082
NOAA 17 [-]             
1 27453U 02032A   23250.91482300  .00000247  00000+0  12354-3 0  9997
2 27453  98.7213 197.3240 0012812  54.3469 305.8901 14.25355402102598
NOAA 18 [B]             
1 28654U 05018A   23251.05789135  .00000272  00000+0  16950-3 0  9994
2 28654  98.9043 325.0300 0015030 142.7052 217.5166 14.13000832943278
NOAA 19 [+]             
1 33591U 09005A   23251.11283279  .00000221  00000+0  14367-3 0  9999
2 33591  99.0926 298.3374 0013958  13.9678 346.1877 14.12816386751654
SUOMI NPP [+]           
1 37849U 11061A   23251.12016865  .00000114  00000+0  74567-4 0  9990
2 37849  98.7069 188.4380 0001451  68.5088 301.1965 14.19563284614706
NOAA 20 [+]             
1 43013U 17073A   23251.08287310  .00000120  00000+0  77372-4 0  9993
2 43013  98.7148 188.2405 0000775  99.7215 260.4049 14.19560797300737
NOAA 21 (JPSS-2) [+]    
1 54234U 22150A   23250.81663590  .00000112  00000+0  73950-4 0  9999
2 54234  98.7186 187.4839 0001196 108.2256 251.9051 14.19543594 42778
